[{"CCSDS_OMM_VERS":"2.0","COMMENT":"GENERATED VIA SPACE-TRACK.ORG API","CREATION_DATE":"2020-01-06T22:20:16","ORIGINATOR":"18 SPCS","OBJECT_NAME":"ONEWEB-0007","OBJECT_ID":"2019-010D","CENTER_NAME":"EARTH","REF_FRAME":"TEME","TIME_SYSTEM":"UTC","MEAN_ELEMENT_THEORY":"SGP4","EPOCH":"2020-01-06T19:48:06.360768","MEAN_MOTION":"13.21817422","ECCENTRICITY":"0.00019550","INCLINATION":"87.9202","RA_OF_ASC_NODE":"6.8255","ARG_OF_PERICENTER":"84.5755","MEAN_ANOMALY":"275.5602","EPHEMERIS_TYPE":"0","CLASSIFICATION_TYPE":"U","NORAD_CAT_ID":"44060","ELEMENT_SET_NO":"999","REV_AT_EPOCH":"4157","BSTAR":"-0.00000995230000","MEAN_MOTION_DOT":"0.00000009","MEAN_MOTION_DDOT":"0.0000000000000","SEMIMAJOR_AXIS":"7555.923","PERIOD":"108.940","APOAPSIS":"1179.265","PERIAPSIS":"1176.310","OBJECT_TYPE":"PAYLOAD","RCS_SIZE":"LARGE","COUNTRY_CODE":"UK","LAUNCH_DATE":"2019-02-27","SITE":"FRGUI","DECAY_DATE":null,"FILE":"2679464","GP_ID":"146253549","TLE_LINE0":"0 ONEWEB-0007","TLE_LINE1":"1 44060U 19010D   20006.82507362  .00000009  00000-0 -99523-5 0  9999","TLE_LINE2":"2 44060  87.9202   6.8255 0001955  84.5755 275.5602 13.21817422 41579"},{"CCSDS_OMM_VERS":"2.0","COMMENT":"GENERATED VIA SPACE-TRACK.ORG API","CREATION_DATE":"2020-01-07T04:33:27","ORIGINATOR":"18 SPCS","OBJECT_NAME":"ONEWEB-0007","OBJECT_ID":"2019-010D","CENTER_NAME":"EARTH","REF_FRAME":"TEME","TIME_SYSTEM":"UTC","MEAN_ELEMENT_THEORY":"SGP4","EPOCH":"2020-01-06T21:37:06.572064","MEAN_MOTION":"13.21817430","ECCENTRICITY":"0.00019540","INCLINATION":"87.9203","RA_OF_ASC_NODE":"6.8103","ARG_OF_PERICENTER":"84.5041","MEAN_ANOMALY":"275.6316","EPHEMERIS_TYPE":"0","CLASSIFICATION_TYPE":"U","NORAD_CAT_ID":"44060","ELEMENT_SET_NO":"999","REV_AT_EPOCH":"4158","BSTAR":"-0.00000759890000","MEAN_MOTION_DOT":"0.00000010","MEAN_MOTION_DDOT":"0.0000000000000","SEMIMAJOR_AXIS":"7555.923","PERIOD":"108.940","APOAPSIS":"1179.264","PERIAPSIS":"1176.311","OBJECT_TYPE":"PAYLOAD","RCS_SIZE":"LARGE","COUNTRY_CODE":"UK","LAUNCH_DATE":"2019-02-27","SITE":"FRGUI","DECAY_DATE":null,"FILE":"2679641","GP_ID":"146275943","TLE_LINE0":"0 ONEWEB-0007","TLE_LINE1":"1 44060U 19010D   20006.90077051 +.00000010 +00000-0 -75989-5 0  9997","TLE_LINE2":"2 44060 087.9203 006.8103 0001954 084.5041 275.6316 13.21817430041582"},{"CCSDS_OMM_VERS":"2.0","COMMENT":"GENERATED VIA SPACE-TRACK.ORG API","CREATION_DATE":"2020-01-08T04:20:10","ORIGINATOR":"18 SPCS","OBJECT_NAME":"ONEWEB-0007","OBJECT_ID":"2019-010D","CENTER_NAME":"EARTH","REF_FRAME":"TEME","TIME_SYSTEM":"UTC","MEAN_ELEMENT_THEORY":"SGP4","EPOCH":"2020-01-07T19:25:09.136992","MEAN_MOTION":"13.21817415","ECCENTRICITY":"0.00019520","INCLINATION":"87.9203","RA_OF_ASC_NODE":"6.6289","ARG_OF_PERICENTER":"84.0833","MEAN_ANOMALY":"276.0524","EPHEMERIS_TYPE":"0","CLASSIFICATION_TYPE":"U","NORAD_CAT_ID":"44060","ELEMENT_SET_NO":"999","REV_AT_EPOCH":"4170","BSTAR":"0.00004794000000","MEAN_MOTION_DOT":"0.00000033","MEAN_MOTION_DDOT":"0.0000000000000","SEMIMAJOR_AXIS":"7555.923","PERIOD":"108.940","APOAPSIS":"1179.263","PERIAPSIS":"1176.313","OBJECT_TYPE":"PAYLOAD","RCS_SIZE":"LARGE","COUNTRY_CODE":"UK","LAUNCH_DATE":"2019-02-27","SITE":"FRGUI","DECAY_DATE":null,"FILE":"2680193","GP_ID":"146326548","TLE_LINE0":"0 ONEWEB-0007","TLE_LINE1":"1 44060U 19010D   20007.80913353 +.00000033 +00000-0 +47940-4 0  9990","TLE_LINE2":"2 44060 087.9203 006.6289 0001952 084.0833 276.0524 13.21817415041700"},{"CCSDS_OMM_VERS":"2.0","COMMENT":"GENERATED VIA SPACE-TRACK.ORG API","CREATION_DATE":"2020-01-08T22:20:14","ORIGINATOR":"18 SPCS","OBJECT_NAME":"ONEWEB-0007","OBJECT_ID":"2019-010D","CENTER_NAME":"EARTH","REF_FRAME":"TEME","TIME_SYSTEM":"UTC","MEAN_ELEMENT_THEORY":"SGP4","EPOCH":"2020-01-08T17:13:12.123552","MEAN_MOTION":"13.21810797","ECCENTRICITY":"0.00019820","INCLINATION":"87.9203","RA_OF_ASC_NODE":"6.4473","ARG_OF_PERICENTER":"83.8132","MEAN_ANOMALY":"276.3227","EPHEMERIS_TYPE":"0","CLASSIFICATION_TYPE":"U","NORAD_CAT_ID":"44060","ELEMENT_SET_NO":"999","REV_AT_EPOCH":"4182","BSTAR":"0.00010933000000","MEAN_MOTION_DOT":"0.00000058","MEAN_MOTION_DDOT":"0.0000000000000","SEMIMAJOR_AXIS":"7555.948","PERIOD":"108.941","APOAPSIS":"1179.310","PERIAPSIS":"1176.315","OBJECT_TYPE":"PAYLOAD","RCS_SIZE":"LARGE","COUNTRY_CODE":"UK","LAUNCH_DATE":"2019-02-27","SITE":"FRGUI","DECAY_DATE":null,"FILE":"2680598","GP_ID":"146375385","TLE_LINE0":"0 ONEWEB-0007","TLE_LINE1":"1 44060U 19010D   20008.71750143  .00000058  00000-0  10933-3 0  9995","TLE_LINE2":"2 44060  87.9203   6.4473 0001982  83.8132 276.3227 13.21810797 41827"},{"CCSDS_OMM_VERS":"2.0","COMMENT":"GENERATED VIA SPACE-TRACK.ORG API","CREATION_DATE":"2020-01-09T05:08:46","ORIGINATOR":"18 SPCS","OBJECT_NAME":"ONEWEB-0007","OBJECT_ID":"2019-010D","CENTER_NAME":"EARTH","REF_FRAME":"TEME","TIME_SYSTEM":"UTC","MEAN_ELEMENT_THEORY":"SGP4","EPOCH":"2020-01-08T22:40:12.859392","MEAN_MOTION":"13.21810807","ECCENTRICITY":"0.00019820","INCLINATION":"87.9203","RA_OF_ASC_NODE":"6.4020","ARG_OF_PERICENTER":"83.7166","MEAN_ANOMALY":"276.4194","EPHEMERIS_TYPE":"0","CLASSIFICATION_TYPE":"U","NORAD_CAT_ID":"44060","ELEMENT_SET_NO":"999","REV_AT_EPOCH":"4185","BSTAR":"0.00011546000000","MEAN_MOTION_DOT":"0.00000061","MEAN_MOTION_DDOT":"0.0000000000000","SEMIMAJOR_AXIS":"7555.948","PERIOD":"108.941","APOAPSIS":"1179.310","PERIAPSIS":"1176.315","OBJECT_TYPE":"PAYLOAD","RCS_SIZE":"LARGE","COUNTRY_CODE":"UK","LAUNCH_DATE":"2019-02-27","SITE":"FRGUI","DECAY_DATE":null,"FILE":"2680735","GP_ID":"146396851","TLE_LINE0":"0 ONEWEB-0007","TLE_LINE1":"1 44060U 19010D   20008.94459328 +.00000061 +00000-0 +11546-3 0  9996","TLE_LINE2":"2 44060 087.9203 006.4020 0001982 083.7166 276.4194 13.21810807041850"},{"CCSDS_OMM_VERS":"2.0","COMMENT":"GENERATED VIA SPACE-TRACK.ORG API","CREATION_DATE":"2020-01-10T04:00:00","ORIGINATOR":"18 SPCS","OBJECT_NAME":"ONEWEB-0007","OBJECT_ID":"2019-010D","CENTER_NAME":"EARTH","REF_FRAME":"TEME","TIME_SYSTEM":"UTC","MEAN_ELEMENT_THEORY":"SGP4","EPOCH":"2020-01-09T15:01:15.053088","MEAN_MOTION":"13.21810911","ECCENTRICITY":"0.00019750","INCLINATION":"87.9203","RA_OF_ASC_NODE":"6.2660","ARG_OF_PERICENTER":"83.4634","MEAN_ANOMALY":"276.6725","EPHEMERIS_TYPE":"0","CLASSIFICATION_TYPE":"U","NORAD_CAT_ID":"44060","ELEMENT_SET_NO":"999","REV_AT_EPOCH":"4194","BSTAR":"0.00011165000000","MEAN_MOTION_DOT":"0.00000059","MEAN_MOTION_DDOT":"0.0000000000000","SEMIMAJOR_AXIS":"7555.947","PERIOD":"108.941","APOAPSIS":"1179.305","PERIAPSIS":"1176.320","OBJECT_TYPE":"PAYLOAD","RCS_SIZE":"LARGE","COUNTRY_CODE":"UK","LAUNCH_DATE":"2019-02-27","SITE":"FRGUI","DECAY_DATE":null,"FILE":"2681237","GP_ID":"146485389","TLE_LINE0":"0 ONEWEB-0007","TLE_LINE1":"1 44060U 19010D   20009.62586867 +.00000059 +00000-0 +11165-3 0  9995","TLE_LINE2":"2 44060 087.9203 006.2660 0001975 083.4634 276.6725 13.21810911041945"},{"CCSDS_OMM_VERS":"2.0","COMMENT":"GENERATED VIA SPACE-TRACK.ORG API","CREATION_DATE":"2020-01-11T04:11:21","ORIGINATOR":"18 SPCS","OBJECT_NAME":"ONEWEB-0007","OBJECT_ID":"2019-010D","CENTER_NAME":"EARTH","REF_FRAME":"TEME","TIME_SYSTEM":"UTC","MEAN_ELEMENT_THEORY":"SGP4","EPOCH":"2020-01-10T21:54:19.168704","MEAN_MOTION":"13.21810989","ECCENTRICITY":"0.00019680","INCLINATION":"87.9204","RA_OF_ASC_NODE":"6.0090","ARG_OF_PERICENTER":"82.9551","MEAN_ANOMALY":"277.1806","EPHEMERIS_TYPE":"0","CLASSIFICATION_TYPE":"U","NORAD_CAT_ID":"44060","ELEMENT_SET_NO":"999","REV_AT_EPOCH":"4211","BSTAR":"0.00000254920000","MEAN_MOTION_DOT":"0.00000014","MEAN_MOTION_DDOT":"0.0000000000000","SEMIMAJOR_AXIS":"7555.947","PERIOD":"108.941","APOAPSIS":"1179.299","PERIAPSIS":"1176.325","OBJECT_TYPE":"PAYLOAD","RCS_SIZE":"LARGE","COUNTRY_CODE":"UK","LAUNCH_DATE":"2019-02-27","SITE":"FRGUI","DECAY_DATE":null,"FILE":"2681885","GP_ID":"146577644","TLE_LINE0":"0 ONEWEB-0007","TLE_LINE1":"1 44060U 19010D   20010.91272186 +.00000014 +00000-0 +25492-5 0  9996","TLE_LINE2":"2 44060 087.9204 006.0090 0001968 082.9551 277.1806 13.21810989042116"},{"CCSDS_OMM_VERS":"2.0","COMMENT":"GENERATED VIA SPACE-TRACK.ORG API","CREATION_DATE":"2020-01-12T02:44:24","ORIGINATOR":"18 SPCS","OBJECT_NAME":"ONEWEB-0007","OBJECT_ID":"2019-010D","CENTER_NAME":"EARTH","REF_FRAME":"TEME","TIME_SYSTEM":"UTC","MEAN_ELEMENT_THEORY":"SGP4","EPOCH":"2020-01-11T19:42:22.071456","MEAN_MOTION":"13.21810995","ECCENTRICITY":"0.00019650","INCLINATION":"87.9205","RA_OF_ASC_NODE":"5.8275","ARG_OF_PERICENTER":"82.5588","MEAN_ANOMALY":"277.5769","EPHEMERIS_TYPE":"0","CLASSIFICATION_TYPE":"U","NORAD_CAT_ID":"44060","ELEMENT_SET_NO":"999","REV_AT_EPOCH":"4223","BSTAR":"-0.00006659500000","MEAN_MOTION_DOT":"-0.00000014","MEAN_MOTION_DDOT":"0.0000000000000","SEMIMAJOR_AXIS":"7555.947","PERIOD":"108.941","APOAPSIS":"1179.297","PERIAPSIS":"1176.327","OBJECT_TYPE":"PAYLOAD","RCS_SIZE":"LARGE","COUNTRY_CODE":"UK","LAUNCH_DATE":"2019-02-27","SITE":"FRGUI","DECAY_DATE":null,"FILE":"2682418","GP_ID":"146647753","TLE_LINE0":"0 ONEWEB-0007","TLE_LINE1":"1 44060U 19010D   20011.82108879 -.00000014 +00000-0 -66595-4 0  9994","TLE_LINE2":"2 44060 087.9205 005.8275 0001965 082.5588 277.5769 13.21810995042234"}]